STARLINK-36406          
1 67923U 26036V   26056.66668981 -.01157536  44004-3 -18812-2 0  9990
2 67923  42.9983 323.9839 0002003 260.5949 340.4833 16.02477980  1719
STARLINK-36714          
1 67924U 26036W   26056.66668981 -.01151336  43628-3 -18589-2 0  9995
2 67924  42.9983 323.9822 0002014 259.8108 341.9356 16.02587353  1714
STARLINK-36726          
1 67925U 26036X   26056.66668981 -.01143212  43111-3 -18357-2 0  9990
2 67925  42.9983 323.9807 0002038 260.1998 342.1738 16.02677421  1719
STARLINK-36758          
1 67926U 26036Y   26056.66668981 -.01142285  43104-3 -18212-2 0  9992
2 67926  42.9982 323.9788 0001993 259.5415 343.5145 16.02797057  1717
STARLINK-36728          
1 67927U 26036Z   26056.66668981 -.01131711  42502-3 -17765-2 0  9998
2 67927  42.9982 323.9750 0002027 260.8802 343.6132 16.03056334  1715
STARLINK-36771          
1 67928U 26036AA  26056.66668981 -.01136902  42807-3 -17962-2 0  9993
2 67928  42.9982 323.9768 0002018 261.3276 342.4995 16.02948543  1711
STARLINK-36809          
1 67929U 26036AB  26056.66668981 -.01127889  42300-3 -17571-2 0  9992
2 67929  42.9982 323.9734 0002026 257.3146 347.8804 16.03182142  1719
STARLINK-36865          
1 67930U 26036AC  26056.66668981 -.01126541  42331-3 -17280-2 0  9999
2 67930  42.9982 323.9697 0001986 258.3088 348.2996 16.03441188  1714
STARLINK-36781          
1 67931U 26036AD  26056.66668981 -.01123273  42042-3 -17370-2 0  9998
2 67931  42.9983 323.9717 0002008 261.0007 344.8967 16.03305052  1716
