CCSDS_OMM_VERS = 2.0
CREATION_DATE  = 
ORIGINATOR     = 

OBJECT_NAME    = STARLINK-36406
OBJECT_ID      = 2026-036V
CENTER_NAME    = EARTH
REF_FRAME      = TEME
TIME_SYSTEM    = UTC
MEAN_ELEMENT_THEORY = SGP/SGP4

EPOCH          = 2026-02-25T16:00:01.999584
MEAN_MOTION    = 16.02477980
ECCENTRICITY   = .0002003
INCLINATION    = 42.9983
RA_OF_ASC_NODE = 323.9839
ARG_OF_PERICENTER = 260.5949
MEAN_ANOMALY   = 340.4833

EPHEMERIS_TYPE = 0
CLASSIFICATION_TYPE = U
NORAD_CAT_ID   = 67923
ELEMENT_SET_NO = 999
REV_AT_EPOCH   = 171
BSTAR          = -.18812E-2
MEAN_MOTION_DOT = -.1157536E-1
MEAN_MOTION_DDOT = .44004E-3

CCSDS_OMM_VERS = 2.0
CREATION_DATE  = 
ORIGINATOR     = 

OBJECT_NAME    = STARLINK-36714
OBJECT_ID      = 2026-036W
CENTER_NAME    = EARTH
REF_FRAME      = TEME
TIME_SYSTEM    = UTC
MEAN_ELEMENT_THEORY = SGP/SGP4

EPOCH          = 2026-02-25T16:00:01.999584
MEAN_MOTION    = 16.02587353
ECCENTRICITY   = .0002014
INCLINATION    = 42.9983
RA_OF_ASC_NODE = 323.9822
ARG_OF_PERICENTER = 259.8108
MEAN_ANOMALY   = 341.9356

EPHEMERIS_TYPE = 0
CLASSIFICATION_TYPE = U
NORAD_CAT_ID   = 67924
ELEMENT_SET_NO = 999
REV_AT_EPOCH   = 171
BSTAR          = -.18589E-2
MEAN_MOTION_DOT = -.1151336E-1
MEAN_MOTION_DDOT = .43628E-3

CCSDS_OMM_VERS = 2.0
CREATION_DATE  = 
ORIGINATOR     = 

OBJECT_NAME    = STARLINK-36726
OBJECT_ID      = 2026-036X
CENTER_NAME    = EARTH
REF_FRAME      = TEME
TIME_SYSTEM    = UTC
MEAN_ELEMENT_THEORY = SGP/SGP4

EPOCH          = 2026-02-25T16:00:01.999584
MEAN_MOTION    = 16.02677421
ECCENTRICITY   = .0002038
INCLINATION    = 42.9983
RA_OF_ASC_NODE = 323.9807
ARG_OF_PERICENTER = 260.1998
MEAN_ANOMALY   = 342.1738

EPHEMERIS_TYPE = 0
CLASSIFICATION_TYPE = U
NORAD_CAT_ID   = 67925
ELEMENT_SET_NO = 999
REV_AT_EPOCH   = 171
BSTAR          = -.18357E-2
MEAN_MOTION_DOT = -.1143212E-1
MEAN_MOTION_DDOT = .43111E-3

CCSDS_OMM_VERS = 2.0
CREATION_DATE  = 
ORIGINATOR     = 

OBJECT_NAME    = STARLINK-36758
OBJECT_ID      = 2026-036Y
CENTER_NAME    = EARTH
REF_FRAME      = TEME
TIME_SYSTEM    = UTC
MEAN_ELEMENT_THEORY = SGP/SGP4

EPOCH          = 2026-02-25T16:00:01.999584
MEAN_MOTION    = 16.02797057
ECCENTRICITY   = .0001993
INCLINATION    = 42.9982
RA_OF_ASC_NODE = 323.9788
ARG_OF_PERICENTER = 259.5415
MEAN_ANOMALY   = 343.5145

EPHEMERIS_TYPE = 0
CLASSIFICATION_TYPE = U
NORAD_CAT_ID   = 67926
ELEMENT_SET_NO = 999
REV_AT_EPOCH   = 171
BSTAR          = -.18212E-2
MEAN_MOTION_DOT = -.1142285E-1
MEAN_MOTION_DDOT = .43104E-3

CCSDS_OMM_VERS = 2.0
CREATION_DATE  = 
ORIGINATOR     = 

OBJECT_NAME    = STARLINK-36728
OBJECT_ID      = 2026-036Z
CENTER_NAME    = EARTH
REF_FRAME      = TEME
TIME_SYSTEM    = UTC
MEAN_ELEMENT_THEORY = SGP/SGP4

EPOCH          = 2026-02-25T16:00:01.999584
MEAN_MOTION    = 16.03056334
ECCENTRICITY   = .0002027
INCLINATION    = 42.9982
RA_OF_ASC_NODE = 323.9750
ARG_OF_PERICENTER = 260.8802
MEAN_ANOMALY   = 343.6132

EPHEMERIS_TYPE = 0
CLASSIFICATION_TYPE = U
NORAD_CAT_ID   = 67927
ELEMENT_SET_NO = 999
REV_AT_EPOCH   = 171
BSTAR          = -.17765E-2
MEAN_MOTION_DOT = -.1131711E-1
MEAN_MOTION_DDOT = .42502E-3

CCSDS_OMM_VERS = 2.0
CREATION_DATE  = 
ORIGINATOR     = 

OBJECT_NAME    = STARLINK-36771
OBJECT_ID      = 2026-036AA
CENTER_NAME    = EARTH
REF_FRAME      = TEME
TIME_SYSTEM    = UTC
MEAN_ELEMENT_THEORY = SGP/SGP4

EPOCH          = 2026-02-25T16:00:01.999584
MEAN_MOTION    = 16.02948543
ECCENTRICITY   = .0002018
INCLINATION    = 42.9982
RA_OF_ASC_NODE = 323.9768
ARG_OF_PERICENTER = 261.3276
MEAN_ANOMALY   = 342.4995

EPHEMERIS_TYPE = 0
CLASSIFICATION_TYPE = U
NORAD_CAT_ID   = 67928
ELEMENT_SET_NO = 999
REV_AT_EPOCH   = 171
BSTAR          = -.17962E-2
MEAN_MOTION_DOT = -.1136902E-1
MEAN_MOTION_DDOT = .42807E-3

CCSDS_OMM_VERS = 2.0
CREATION_DATE  = 
ORIGINATOR     = 

OBJECT_NAME    = STARLINK-36809
OBJECT_ID      = 2026-036AB
CENTER_NAME    = EARTH
REF_FRAME      = TEME
TIME_SYSTEM    = UTC
MEAN_ELEMENT_THEORY = SGP/SGP4

EPOCH          = 2026-02-25T16:00:01.999584
MEAN_MOTION    = 16.03182142
ECCENTRICITY   = .0002026
INCLINATION    = 42.9982
RA_OF_ASC_NODE = 323.9734
ARG_OF_PERICENTER = 257.3146
MEAN_ANOMALY   = 347.8804

EPHEMERIS_TYPE = 0
CLASSIFICATION_TYPE = U
NORAD_CAT_ID   = 67929
ELEMENT_SET_NO = 999
REV_AT_EPOCH   = 171
BSTAR          = -.17571E-2
MEAN_MOTION_DOT = -.1127889E-1
MEAN_MOTION_DDOT = .423E-3

CCSDS_OMM_VERS = 2.0
CREATION_DATE  = 
ORIGINATOR     = 

OBJECT_NAME    = STARLINK-36865
OBJECT_ID      = 2026-036AC
CENTER_NAME    = EARTH
REF_FRAME      = TEME
TIME_SYSTEM    = UTC
MEAN_ELEMENT_THEORY = SGP/SGP4

EPOCH          = 2026-02-25T16:00:01.999584
MEAN_MOTION    = 16.03441188
ECCENTRICITY   = .0001986
INCLINATION    = 42.9982
RA_OF_ASC_NODE = 323.9697
ARG_OF_PERICENTER = 258.3088
MEAN_ANOMALY   = 348.2996

EPHEMERIS_TYPE = 0
CLASSIFICATION_TYPE = U
NORAD_CAT_ID   = 67930
ELEMENT_SET_NO = 999
REV_AT_EPOCH   = 171
BSTAR          = -.1728E-2
MEAN_MOTION_DOT = -.1126541E-1
MEAN_MOTION_DDOT = .42331E-3

CCSDS_OMM_VERS = 2.0
CREATION_DATE  = 
ORIGINATOR     = 

OBJECT_NAME    = STARLINK-36781
OBJECT_ID      = 2026-036AD
CENTER_NAME    = EARTH
REF_FRAME      = TEME
TIME_SYSTEM    = UTC
MEAN_ELEMENT_THEORY = SGP/SGP4

EPOCH          = 2026-02-25T16:00:01.999584
MEAN_MOTION    = 16.03305052
ECCENTRICITY   = .0002008
INCLINATION    = 42.9983
RA_OF_ASC_NODE = 323.9717
ARG_OF_PERICENTER = 261.0007
MEAN_ANOMALY   = 344.8967

EPHEMERIS_TYPE = 0
CLASSIFICATION_TYPE = U
NORAD_CAT_ID   = 67931
ELEMENT_SET_NO = 999
REV_AT_EPOCH   = 171
BSTAR          = -.1737E-2
MEAN_MOTION_DOT = -.1123273E-1
MEAN_MOTION_DDOT = .42042E-3

